{
  "type": "FeatureCollection",
  "features": [
    {
      "type": "Feature",
      "properties": {
        "norad_id": 38481,
        "name": "COSMOS 2251 DEB",
        "group": "cosmos-2251-debris",
        "lat": -72.23544681847068,
        "lon": -44.56343377602148,
        "alt_km": 793.2771026331975,
        "timestamp": "2025-12-05T19:30:25.965218+00:00",
        "meta_object_name": "COSMOS 2251 DEB",
        "meta_object_id": "1993-036BTR",
        "meta_epoch": "2025-11-30T21:06:34.190496",
        "meta_mean_motion": 13.94733975,
        "meta_eccentricity": 0.02337783,
        "meta_inclination": 73.9329,
        "meta_ra_of_asc_node": 28.0528,
        "meta_arg_of_pericenter": 330.587,
        "meta_mean_anomaly": 28.2266,
        "meta_ephemeris_type": 0,
        "meta_classification_type": "U",
        "meta_norad_cat_id": 38481,
        "meta_element_set_no": 999,
        "meta_rev_at_epoch": 58895,
        "meta_bstar": 0.0013592661,
        "meta_mean_motion_dot": 2.261e-05,
        "meta_mean_motion_ddot": 0,
        "tle_line1": "1 38481U 93036BTR 25334.87956239  .00002261  00000+0  13593-2 0  9994",
        "tle_line2": "2 38481  73.9329  28.0528 0233778 330.5870  28.2266 13.94733975588952"
      },
      "geometry": {
        "type": "Point",
        "coordinates": [
          -44.56343377602148,
          -72.23544681847068
        ]
      }
    },
    {
      "type": "Feature",
      "properties": {
        "norad_id": 38483,
        "name": "COSMOS 2251 DEB",
        "group": "cosmos-2251-debris",
        "lat": -69.60765366765494,
        "lon": -106.51795166169686,
        "alt_km": 848.0165164977852,
        "timestamp": "2025-12-05T19:30:25.965229+00:00",
        "meta_object_name": "COSMOS 2251 DEB",
        "meta_object_id": "1993-036BTT",
        "meta_epoch": "2025-11-30T10:35:51.419040",
        "meta_mean_motion": 14.2869489,
        "meta_eccentricity": 0.01113545,
        "meta_inclination": 74.2627,
        "meta_ra_of_asc_node": 33.7569,
        "meta_arg_of_pericenter": 143.1875,
        "meta_mean_anomaly": 217.699,
        "meta_ephemeris_type": 0,
        "meta_classification_type": "U",
        "meta_norad_cat_id": 38483,
        "meta_element_set_no": 999,
        "meta_rev_at_epoch": 63302,
        "meta_bstar": 0.00092192588,
        "meta_mean_motion_dot": 2.455e-05,
        "meta_mean_motion_ddot": 0,
        "tle_line1": "1 38483U 93036BTT 25334.44156735  .00002455  00000+0  92193-3 0  9991",
        "tle_line2": "2 38483  74.2627  33.7569 0111354 143.1875 217.6990 14.28694890633022"
      },
      "geometry": {
        "type": "Point",
        "coordinates": [
          -106.51795166169686,
          -69.60765366765494
        ]
      }
    },
    {
      "type": "Feature",
      "properties": {
        "norad_id": 38486,
        "name": "COSMOS 2251 DEB",
        "group": "cosmos-2251-debris",
        "lat": -30.893465667675205,
        "lon": 48.35498797668724,
        "alt_km": 675.6335193393106,
        "timestamp": "2025-12-05T19:30:25.965240+00:00",
        "meta_object_name": "COSMOS 2251 DEB",
        "meta_object_id": "1993-036BTW",
        "meta_epoch": "2025-12-04T10:45:43.773120",
        "meta_mean_motion": 14.72848629,
        "meta_eccentricity": 0.0029962,
        "meta_inclination": 73.9408,
        "meta_ra_of_asc_node": 221.1021,
        "meta_arg_of_pericenter": 6.1339,
        "meta_mean_anomaly": 174.6266,
        "meta_ephemeris_type": 0,
        "meta_classification_type": "U",
        "meta_norad_cat_id": 38486,
        "meta_element_set_no": 999,
        "meta_rev_at_epoch": 75312,
        "meta_bstar": 0.0072104,
        "meta_mean_motion_dot": 0.00046774,
        "meta_mean_motion_ddot": 0,
        "tle_line1": "1 38486U 93036BTW 25338.44842330  .00046774  00000+0  72104-2 0  9992",
        "tle_line2": "2 38486  73.9408 221.1021 0029962   6.1339 174.6266 14.72848629753122"
      },
      "geometry": {
        "type": "Point",
        "coordinates": [
          48.35498797668724,
          -30.893465667675205
        ]
      }
    },
    {
      "type": "Feature",
      "properties": {
        "norad_id": 38487,
        "name": "COSMOS 2251 DEB",
        "group": "cosmos-2251-debris",
        "lat": -21.395211723938218,
        "lon": 41.8654793814401,
        "alt_km": 528.4833360513458,
        "timestamp": "2025-12-05T19:30:25.965250+00:00",
        "meta_object_name": "COSMOS 2251 DEB",
        "meta_object_id": "1993-036BTX",
        "meta_epoch": "2025-12-03T21:41:13.895520",
        "meta_mean_motion": 15.16226661,
        "meta_eccentricity": 0.00230827,
        "meta_inclination": 73.974,
        "meta_ra_of_asc_node": 52.3246,
        "meta_arg_of_pericenter": 225.1872,
        "meta_mean_anomaly": 134.7448,
        "meta_ephemeris_type": 0,
        "meta_classification_type": "U",
        "meta_norad_cat_id": 38487,
        "meta_element_set_no": 999,
        "meta_rev_at_epoch": 66666,
        "meta_bstar": 0.0042718994,
        "meta_mean_motion_dot": 0.0008408,
        "meta_mean_motion_ddot": 0,
        "tle_line1": "1 38487U 93036BTX 25337.90363305  .00084080  00000+0  42719-2 0  9994",
        "tle_line2": "2 38487  73.9740  52.3246 0023082 225.1872 134.7448 15.16226661666663"
      },
      "geometry": {
        "type": "Point",
        "coordinates": [
          41.8654793814401,
          -21.395211723938218
        ]
      }
    },
    {
      "type": "Feature",
      "properties": {
        "norad_id": 39109,
        "name": "COSMOS 2251 DEB",
        "group": "cosmos-2251-debris",
        "lat": -18.43564677615799,
        "lon": -126.94843258469383,
        "alt_km": 622.0376739622006,
        "timestamp": "2025-12-05T19:30:25.965260+00:00",
        "meta_object_name": "COSMOS 2251 DEB",
        "meta_object_id": "1993-036BTY",
        "meta_epoch": "2025-11-13T05:50:34.179360",
        "meta_mean_motion": 14.70365272,
        "meta_eccentricity": 0.0058425,
        "meta_inclination": 74.0424,
        "meta_ra_of_asc_node": 282.2926,
        "meta_arg_of_pericenter": 32.7567,
        "meta_mean_anomaly": 29.6254,
        "meta_ephemeris_type": 0,
        "meta_classification_type": "U",
        "meta_norad_cat_id": 39109,
        "meta_element_set_no": 999,
        "meta_rev_at_epoch": 64740,
        "meta_bstar": 0.0018778,
        "meta_mean_motion_dot": 0.00011647,
        "meta_mean_motion_ddot": 0,
        "tle_line1": "1 39109U 93036BTY 25317.24345115  .00011647  00000+0  18778-2 0  9997",
        "tle_line2": "2 39109  74.0424 282.2926 0058425  32.7567  29.6254 14.70365272647406"
      },
      "geometry": {
        "type": "Point",
        "coordinates": [
          -126.94843258469383,
          -18.43564677615799
        ]
      }
    },
    {
      "type": "Feature",
      "properties": {
        "norad_id": 39110,
        "name": "COSMOS 2251 DEB",
        "group": "cosmos-2251-debris",
        "lat": 61.87813876673583,
        "lon": -137.521118391661,
        "alt_km": 712.9134278989077,
        "timestamp": "2025-12-05T19:30:25.965271+00:00",
        "meta_object_name": "COSMOS 2251 DEB",
        "meta_object_id": "1993-036BTZ",
        "meta_epoch": "2025-12-03T13:14:13.055136",
        "meta_mean_motion": 14.72215365,
        "meta_eccentricity": 0.00964609,
        "meta_inclination": 73.9598,
        "meta_ra_of_asc_node": 79.4668,
        "meta_arg_of_pericenter": 313.6965,
        "meta_mean_anomaly": 59.6182,
        "meta_ephemeris_type": 0,
        "meta_classification_type": "U",
        "meta_norad_cat_id": 39110,
        "meta_element_set_no": 999,
        "meta_rev_at_epoch": 62349,
        "meta_bstar": 0.00066560445,
        "meta_mean_motion_dot": 4.484e-05,
        "meta_mean_motion_ddot": 0,
        "tle_line1": "1 39110U 93036BTZ 25337.55153999  .00004484  00000+0  66560-3 0  9996",
        "tle_line2": "2 39110  73.9598  79.4668 0096460 313.6965  59.6182 14.72215365623496"
      },
      "geometry": {
        "type": "Point",
        "coordinates": [
          -137.521118391661,
          61.87813876673583
        ]
      }
    },
    {
      "type": "Feature",
      "properties": {
        "norad_id": 39111,
        "name": "COSMOS 2251 DEB",
        "group": "cosmos-2251-debris",
        "lat": 63.65555746594784,
        "lon": -159.85411955543512,
        "alt_km": 517.6760244981942,
        "timestamp": "2025-12-05T19:30:25.965281+00:00",
        "meta_object_name": "COSMOS 2251 DEB",
        "meta_object_id": "1993-036BUA",
        "meta_epoch": "2025-11-17T15:40:41.824704",
        "meta_mean_motion": 15.09497671,
        "meta_eccentricity": 0.00084083,
        "meta_inclination": 74.0067,
        "meta_ra_of_asc_node": 93.139,
        "meta_arg_of_pericenter": 94.0367,
        "meta_mean_anomaly": 266.1786,
        "meta_ephemeris_type": 0,
        "meta_classification_type": "U",
        "meta_norad_cat_id": 39111,
        "meta_element_set_no": 999,
        "meta_rev_at_epoch": 8766,
        "meta_bstar": 0.0056310804,
        "meta_mean_motion_dot": 0.00091468,
        "meta_mean_motion_ddot": 0,
        "tle_line1": "1 39111U 93036BUA 25321.65326186  .00091468  00000+0  56311-2 0  9991",
        "tle_line2": "2 39111  74.0067  93.1390 0008408  94.0367 266.1786 15.09497671 87667"
      },
      "geometry": {
        "type": "Point",
        "coordinates": [
          -159.85411955543512,
          63.65555746594784
        ]
      }
    }
  ]
}